OBJECT_NAME,OBJECT_ID,EPOCH,MEAN_MOTION,ECCENTRICITY,INCLINATION,RA_OF_ASC_NODE,ARG_OF_PERICENTER,MEAN_ANOMALY,EPHEMERIS_TYPE,CLASSIFICATION_TYPE,NORAD_CAT_ID,ELEMENT_SET_NO,REV_AT_EPOCH,BSTAR,MEAN_MOTION_DOT,MEAN_MOTION_DDOT
FLORIPASAT-1,2019-093G,2026-07-18T15:03:16.737120,15.04154731,.00106804,97.7915,294.0953,328.0064,32.0512,0,U,44885,999,35737,.13686438E-3,.1837E-4,0
SHUNTIAN,2019-093H,2026-07-18T15:51:32.517792,14.95288978,.00105203,97.8009,287.6630,326.6112,33.4444,0,U,44886,999,35688,.16845241E-3,.1798E-4,0
ELEKTRO-L 3,2019-095A,2026-07-17T23:53:55.792032,1.00271518,.00014072,0.3344,82.3228,20.0447,267.9036,0,U,44903,999,2401,0,-.105E-5,0
GONETS-M 14,2019-096A,2026-07-18T14:29:01.312224,12.42871759,.00144435,82.5211,65.1608,83.6151,276.6574,0,U,44905,999,29758,.14737311E-2,.214E-5,0
GONETS-M 15,2019-096B,2026-07-18T15:11:12.343200,12.42883681,.00161683,82.5230,65.6092,105.2116,255.0753,0,U,44906,999,29755,.75918579E-3,.115E-5,0
GONETS-M 16,2019-096C,2026-07-18T13:52:25.070880,12.42893263,.00111557,82.5177,64.5806,144.1749,216.0081,0,U,44907,999,29753,.11023658E-2,.163E-5,0
RS-44 & BREEZE-KM R/B,2019-096E,2026-07-18T14:09:45.438336,12.79748908,.02184788,82.5244,318.8390,71.0976,291.3672,0,U,44909,999,30636,.24229552E-4,.19E-6,0
JILIN-1 KUANFU 01,2020-003A,2026-07-18T13:07:31.878336,15.10877328,.00096035,97.5018,272.8911,185.0804,175.0331,0,U,45016,999,36006,.94828116E-4,.1516E-4,0
XINGYUN-2 01,2020-028A,2026-07-18T13:55:12.215136,15.11926129,.0010851,97.4880,191.3625,94.0804,266.1667,0,U,45602,999,33958,.10979773E-3,.1819E-4,0
XINGYUN-2 02,2020-028B,2026-07-18T15:07:53.719968,15.11645133,.0011413,97.5069,205.0721,154.9062,205.2725,0,U,45603,999,33958,.76077491E-4,.1231E-4,0
HAIYANG-1D,2020-036A,2026-07-18T13:51:19.840608,14.34182226,.00039631,98.4563,140.5761,64.0062,296.1531,0,U,45721,999,31947,.2748458E-4,.34E-6,0
M2 PATHFINDER,2020-037E,2026-07-18T12:00:39.445920,15.04796790,.00126028,97.8140,31.0865,52.1110,308.1253,0,U,45727,999,33020,.58406323E-4,.761E-5,0
GAOFEN DUOMO (GFDM),2020-042A,2026-07-18T15:27:24.960096,14.76804329,.00104585,97.7723,258.3832,341.8056,18.2779,0,U,45856,999,32565,.35113369E-4,.197E-5,0
ZIYUAN 3-03 (ZY 3-03),2020-051A,2026-07-18T14:59:18.059712,15.21215982,.00029846,97.5359,266.6455,227.6328,132.4655,0,U,45939,999,33212,.10517527E-3,.2276E-4,0
NEMO-HD,2020-061F,2026-07-18T14:36:26.745696,15.45181520,.00010137,97.1896,261.2543,107.1304,253.0057,0,U,46277,999,32683,.13036023E-3,.6096E-4,0
NAPA-1,2020-061BA,2026-07-18T15:28:13.783008,15.72337595,.00025959,97.2433,274.9564,172.0246,188.1059,0,U,46320,999,32667,.39045455E-3,.51756E-3,0
JILIN-1 GAOFEN 3E,2020-065D,2026-07-18T14:29:21.506496,15.67556995,.00096497,97.2201,253.0247,60.9980,299.2247,0,U,46457,999,32467,.40388119E-3,.44002E-3,0
JILIN-1 GAOFEN 3F,2020-065E,2026-07-18T15:00:45.622656,15.64215641,.00109644,97.2160,250.2186,46.2746,313.9420,0,U,46458,999,32461,.40908371E-3,.39005E-3,0
JILIN-1 GAOFEN 3G,2020-065F,2026-07-18T13:07:12.325152,15.77499339,.00058491,97.2211,257.5312,257.9833,102.0778,0,U,46459,999,32487,.50139006E-3,.83486E-3,0
JILIN-1 GAOFEN 3H,2020-065G,2026-07-18T14:24:19.068480,15.72708818,.00068598,97.2161,253.6947,191.4198,168.6911,0,U,46460,999,32481,.45562995E-3,.61512E-3,0
HAIYANG-2C,2020-066A,2026-07-18T14:44:08.469888,13.83373727,.00074566,65.9976,137.0397,236.9897,123.0455,0,U,46469,999,29384,.20535538E-3,.145E-5,0
HJ-2A,2020-067A,2026-07-18T14:37:16.951008,14.76552428,.00044297,97.8821,277.2377,145.8643,214.2852,0,U,46478,999,31289,.88061326E-4,.564E-5,0
HJ-2B,2020-067B,2026-07-18T13:52:25.018176,14.76513164,.00020599,97.8884,278.2540,102.6091,257.5349,0,U,46479,999,31289,.78001439E-4,.494E-5,0
GONETS-M 17,2020-068A,2026-07-18T14:29:06.998208,12.42873676,.00216907,82.5020,327.9580,328.9476,31.0321,0,U,46486,999,26306,-.32532855E-3,-.35E-6,0
GONETS-M 18,2020-068B,2026-07-18T15:32:40.846272,12.42874828,.00189272,82.4974,327.0364,325.3553,34.6292,0,U,46487,999,26305,.2735647E-4,.14E-6,0
GONETS-M 19,2020-068C,2026-07-18T14:56:38.940288,12.42892502,.00128999,82.4999,327.5081,342.3997,17.6634,0,U,46488,999,26315,-.35617696E-3,-.39E-6,0
DEKART,2020-068H,2026-07-18T15:18:10.357632,15.37995461,.00096384,97.8744,211.1762,161.4141,198.7456,0,U,46493,999,32060,.17380294E-3,.6412E-4,0
