FLORIPASAT-1            
1 44885U 19093G   26199.62727705  .00001837  00000+0  13686-3 0  9999
2 44885  97.7915 294.0953 0010680 328.0064  32.0512 15.04154731357378
SHUNTIAN                
1 44886U 19093H   26199.66079303  .00001798  00000+0  16845-3 0  9994
2 44886  97.8009 287.6630 0010520 326.6112  33.4444 14.95288978356889
ELEKTRO-L 3             
1 44903U 19095A   26198.99578463 -.00000105  00000+0  00000+0 0  9996
2 44903   0.3344  82.3228 0001407  20.0447 267.9036  1.00271518 24015
GONETS-M 14             
1 44905U 19096A   26199.60348741  .00000214  00000+0  14737-2 0  9997
2 44905  82.5211  65.1608 0014443  83.6151 276.6574 12.42871759297583
GONETS-M 15             
1 44906U 19096B   26199.63278175  .00000115  00000+0  75919-3 0  9994
2 44906  82.5230  65.6092 0016168 105.2116 255.0753 12.42883681297559
GONETS-M 16             
1 44907U 19096C   26199.57806795  .00000163  00000+0  11024-2 0  9992
2 44907  82.5177  64.5806 0011155 144.1749 216.0081 12.42893263297532
RS-44 & BREEZE-KM R/B   
1 44909U 19096E   26199.59010924  .00000019  00000+0  24230-4 0  9992
2 44909  82.5244 318.8390 0218478  71.0976 291.3672 12.79748908306368
JILIN-1 KUANFU 01       
1 45016U 20003A   26199.54689674  .00001516  00000+0  94828-4 0  9994
2 45016  97.5018 272.8911 0009603 185.0804 175.0331 15.10877328360069
XINGYUN-2 01            
1 45602U 20028A   26199.58000249  .00001819  00000+0  10980-3 0  9993
2 45602  97.4880 191.3625 0010851  94.0804 266.1667 15.11926129339581
XINGYUN-2 02            
1 45603U 20028B   26199.63048287  .00001231  00000+0  76077-4 0  9992
2 45603  97.5069 205.0721 0011413 154.9062 205.2725 15.11645133339581
HAIYANG-1D              
1 45721U 20036A   26199.57731297  .00000034  00000+0  27485-4 0  9994
2 45721  98.4563 140.5761 0003963  64.0062 296.1531 14.34182226319473
M2 PATHFINDER           
1 45727U 20037E   26199.50045655  .00000761  00000+0  58406-4 0  9994
2 45727  97.8140  31.0865 0012602  52.1110 308.1253 15.04796790330208
GAOFEN DUOMO (GFDM)     
1 45856U 20042A   26199.64403889  .00000197  00000+0  35113-4 0  9998
2 45856  97.7723 258.3832 0010458 341.8056  18.2779 14.76804329325650
ZIYUAN 3-03 (ZY 3-03)   
1 45939U 20051A   26199.62451458  .00002276  00000+0  10518-3 0  9994
2 45939  97.5359 266.6455 0002984 227.6328 132.4655 15.21215982332120
NEMO-HD                 
1 46277U 20061F   26199.60864289  .00006096  00000+0  13036-3 0  9991
2 46277  97.1896 261.2543 0001013 107.1304 253.0057 15.45181520326838
NAPA-1                  
1 46320U 20061BA  26199.64460397  .00051756  00000+0  39045-3 0  9997
2 46320  97.2433 274.9564 0002595 172.0246 188.1059 15.72337595326678
JILIN-1 GAOFEN 3E       
1 46457U 20065D   26199.60372114  .00044002  00000+0  40388-3 0  9995
2 46457  97.2201 253.0247 0009649  60.9980 299.2247 15.67556995324677
JILIN-1 GAOFEN 3F       
1 46458U 20065E   26199.62552804  .00039005  00000+0  40908-3 0  9999
2 46458  97.2160 250.2186 0010964  46.2746 313.9420 15.64215641324610
JILIN-1 GAOFEN 3G       
1 46459U 20065F   26199.54667043  .00083486  00000+0  50139-3 0  9992
2 46459  97.2211 257.5312 0005849 257.9833 102.0778 15.77499339324876
JILIN-1 GAOFEN 3H       
1 46460U 20065G   26199.60022070  .00061512  00000+0  45563-3 0  9997
2 46460  97.2161 253.6947 0006859 191.4198 168.6911 15.72708818324812
HAIYANG-2C              
1 46469U 20066A   26199.61398692  .00000145  00000+0  20536-3 0  9992
2 46469  65.9976 137.0397 0007456 236.9897 123.0455 13.83373727293849
HJ-2A                   
1 46478U 20067A   26199.60922397  .00000564  00000+0  88061-4 0  9990
2 46478  97.8821 277.2377 0004429 145.8643 214.2852 14.76552428312892
HJ-2B                   
1 46479U 20067B   26199.57806734  .00000494  00000+0  78001-4 0  9998
2 46479  97.8884 278.2540 0002059 102.6091 257.5349 14.76513164312895
GONETS-M 17             
1 46486U 20068A   26199.60355322 -.00000035  00000+0 -32533-3 0  9995
2 46486  82.5020 327.9580 0021690 328.9476  31.0321 12.42873676263061
GONETS-M 18             
1 46487U 20068B   26199.64769498  .00000014  00000+0  27356-4 0  9996
2 46487  82.4974 327.0364 0018927 325.3553  34.6292 12.42874828263051
GONETS-M 19             
1 46488U 20068C   26199.62267292 -.00000039  00000+0 -35618-3 0  9998
2 46488  82.4999 327.5081 0012899 342.3997  17.6634 12.42892502263154
DEKART                  
1 46493U 20068H   26199.63761988  .00006412  00000+0  17380-3 0  9991
2 46493  97.8744 211.1762 0009638 161.4141 198.7456 15.37995461320602
